{
  "type": "FeatureCollection",
  "features": [
    {
      "type": "Feature",
      "properties": {
        "norad_id": 43719,
        "name": "HYSIS",
        "group": "resource",
        "lat": 62.239584275224175,
        "lon": 30.884549439549136,
        "alt_km": 626.5244353753587,
        "timestamp": "2025-12-09T09:46:47.304785+00:00",
        "meta_object_name": "HYSIS",
        "meta_object_id": "2018-096A",
        "meta_epoch": "2025-12-08T23:44:59.344800",
        "meta_mean_motion": 14.78627369,
        "meta_eccentricity": 0.00015448,
        "meta_inclination": 98.0099,
        "meta_ra_of_asc_node": 45.9855,
        "meta_arg_of_pericenter": 56.7572,
        "meta_mean_anomaly": 303.3787,
        "meta_ephemeris_type": 0,
        "meta_classification_type": "U",
        "meta_norad_cat_id": 43719,
        "meta_element_set_no": 999,
        "meta_rev_at_epoch": 37931,
        "meta_bstar": 0.00020974536,
        "meta_mean_motion_dot": 1.484e-05,
        "meta_mean_motion_ddot": 0,
        "tle_line1": "1 43719U 18096A   25342.98957575  .00001484  00000+0  20975-3 0  9991",
        "tle_line2": "2 43719  98.0099  45.9855 0001544  56.7572 303.3787 14.78627369379310"
      },
      "geometry": {
        "type": "Point",
        "coordinates": [
          30.884549439549136,
          62.239584275224175
        ]
      }
    },
    {
      "type": "Feature",
      "properties": {
        "norad_id": 43783,
        "name": "KAZSTSAT",
        "group": "resource",
        "lat": 51.06411886785456,
        "lon": 9.407588863055878,
        "alt_km": 562.6514312677218,
        "timestamp": "2025-12-09T09:46:47.304795+00:00",
        "meta_object_name": "KAZSTSAT",
        "meta_object_id": "2018-099AB",
        "meta_epoch": "2025-12-09T01:32:30.411168",
        "meta_mean_motion": 14.99334862,
        "meta_eccentricity": 0.0006104,
        "meta_inclination": 97.4556,
        "meta_ra_of_asc_node": 18.407,
        "meta_arg_of_pericenter": 345.3373,
        "meta_mean_anomaly": 14.7673,
        "meta_ephemeris_type": 0,
        "meta_classification_type": "U",
        "meta_norad_cat_id": 43783,
        "meta_element_set_no": 999,
        "meta_rev_at_epoch": 38281,
        "meta_bstar": 0.00018724,
        "meta_mean_motion_dot": 2.233e-05,
        "meta_mean_motion_ddot": 0,
        "tle_line1": "1 43783U 18099AB  25343.06424087  .00002233  00000+0  18724-3 0  9994",
        "tle_line2": "2 43783  97.4556  18.4070 0006104 345.3373  14.7673 14.99334862382811"
      },
      "geometry": {
        "type": "Point",
        "coordinates": [
          9.407588863055878,
          51.06411886785456
        ]
      }
    },
    {
      "type": "Feature",
      "properties": {
        "norad_id": 43831,
        "name": "SAUDISAT 5A",
        "group": "resource",
        "lat": 29.853665355263495,
        "lon": -132.09732157337018,
        "alt_km": 483.9515557802024,
        "timestamp": "2025-12-09T09:46:47.304806+00:00",
        "meta_object_name": "SAUDISAT 5A",
        "meta_object_id": "2018-102A",
        "meta_epoch": "2025-12-09T04:24:14.508864",
        "meta_mean_motion": 15.25587195,
        "meta_eccentricity": 0.0011822,
        "meta_inclination": 97.3352,
        "meta_ra_of_asc_node": 43.443,
        "meta_arg_of_pericenter": 87.1612,
        "meta_mean_anomaly": 273.0979,
        "meta_ephemeris_type": 0,
        "meta_classification_type": "U",
        "meta_norad_cat_id": 43831,
        "meta_element_set_no": 999,
        "meta_rev_at_epoch": 38668,
        "meta_bstar": 0.00031934,
        "meta_mean_motion_dot": 8.056e-05,
        "meta_mean_motion_ddot": 0,
        "tle_line1": "1 43831U 18102A   25343.18350126  .00008056  00000+0  31934-3 0  9995",
        "tle_line2": "2 43831  97.3352  43.4430 0011822  87.1612 273.0979 15.25587195386683"
      },
      "geometry": {
        "type": "Point",
        "coordinates": [
          -132.09732157337018,
          29.853665355263495
        ]
      }
    },
    {
      "type": "Feature",
      "properties": {
        "norad_id": 43833,
        "name": "SAUDISAT 5B",
        "group": "resource",
        "lat": -17.76822373846481,
        "lon": -135.97364995180408,
        "alt_km": 495.8382426765811,
        "timestamp": "2025-12-09T09:46:47.304817+00:00",
        "meta_object_name": "SAUDISAT 5B",
        "meta_object_id": "2018-102C",
        "meta_epoch": "2025-12-09T04:11:43.526976",
        "meta_mean_motion": 15.25941588,
        "meta_eccentricity": 0.0012527,
        "meta_inclination": 97.3447,
        "meta_ra_of_asc_node": 46.1667,
        "meta_arg_of_pericenter": 89.5312,
        "meta_mean_anomaly": 270.7362,
        "meta_ephemeris_type": 0,
        "meta_classification_type": "U",
        "meta_norad_cat_id": 43833,
        "meta_element_set_no": 999,
        "meta_rev_at_epoch": 38679,
        "meta_bstar": 0.00029361,
        "meta_mean_motion_dot": 7.481e-05,
        "meta_mean_motion_ddot": 0,
        "tle_line1": "1 43833U 18102C   25343.17480934  .00007481  00000+0  29361-3 0  9999",
        "tle_line2": "2 43833  97.3447  46.1667 0012527  89.5312 270.7362 15.25941588386790"
      },
      "geometry": {
        "type": "Point",
        "coordinates": [
          -135.97364995180408,
          -17.76822373846481
        ]
      }
    },
    {
      "type": "Feature",
      "properties": {
        "norad_id": 44622,
        "name": "GAOFEN-10R",
        "group": "resource",
        "lat": -60.99705530022966,
        "lon": -54.351150618061,
        "alt_km": 629.9367574126563,
        "timestamp": "2025-12-09T09:46:47.304828+00:00",
        "meta_object_name": "GAOFEN-10R",
        "meta_object_id": "2019-066A",
        "meta_epoch": "2025-12-08T22:43:19.526592",
        "meta_mean_motion": 14.82770916,
        "meta_eccentricity": 0.00080421,
        "meta_inclination": 98.0276,
        "meta_ra_of_asc_node": 290.4383,
        "meta_arg_of_pericenter": 52.4367,
        "meta_mean_anomaly": 307.7575,
        "meta_ephemeris_type": 0,
        "meta_classification_type": "U",
        "meta_norad_cat_id": 44622,
        "meta_element_set_no": 999,
        "meta_rev_at_epoch": 33418,
        "meta_bstar": 0.00031185974,
        "meta_mean_motion_dot": 2.467e-05,
        "meta_mean_motion_ddot": 0,
        "tle_line1": "1 44622U 19066A   25342.94675378  .00002467  00000+0  31186-3 0  9995",
        "tle_line2": "2 44622  98.0276 290.4383 0008042  52.4367 307.7575 14.82770916334180"
      },
      "geometry": {
        "type": "Point",
        "coordinates": [
          -54.351150618061,
          -60.99705530022966
        ]
      }
    },
    {
      "type": "Feature",
      "properties": {
        "norad_id": 44804,
        "name": "CARTOSAT-3",
        "group": "resource",
        "lat": 23.968874527491014,
        "lon": 39.69396664806413,
        "alt_km": 504.58738706364056,
        "timestamp": "2025-12-09T09:46:47.304839+00:00",
        "meta_object_name": "CARTOSAT-3",
        "meta_object_id": "2019-081A",
        "meta_epoch": "2025-12-09T04:55:54.204672",
        "meta_mean_motion": 15.19321445,
        "meta_eccentricity": 0.0013972,
        "meta_inclination": 97.4584,
        "meta_ra_of_asc_node": 42.8334,
        "meta_arg_of_pericenter": 98.034,
        "meta_mean_anomaly": 262.248,
        "meta_ephemeris_type": 0,
        "meta_classification_type": "U",
        "meta_norad_cat_id": 44804,
        "meta_element_set_no": 999,
        "meta_rev_at_epoch": 33462,
        "meta_bstar": 0.000178,
        "meta_mean_motion_dot": 3.699e-05,
        "meta_mean_motion_ddot": 0,
        "tle_line1": "1 44804U 19081A   25343.20548848  .00003699  00000+0  17800-3 0  9990",
        "tle_line2": "2 44804  97.4584  42.8334 0013972  98.0340 262.2480 15.19321445334626"
      },
      "geometry": {
        "type": "Point",
        "coordinates": [
          39.69396664806413,
          23.968874527491014
        ]
      }
    },
    {
      "type": "Feature",
      "properties": {
        "norad_id": 44819,
        "name": "GAOFEN-12 01",
        "group": "resource",
        "lat": -50.12851896271451,
        "lon": 160.31495759692336,
        "alt_km": 633.4345008774217,
        "timestamp": "2025-12-09T09:46:47.304850+00:00",
        "meta_object_name": "GAOFEN-12 01",
        "meta_object_id": "2019-082A",
        "meta_epoch": "2025-12-09T03:52:30.825696",
        "meta_mean_motion": 14.80650386,
        "meta_eccentricity": 0.0001197,
        "meta_inclination": 97.8127,
        "meta_ra_of_asc_node": 349.5364,
        "meta_arg_of_pericenter": 257.07,
        "meta_mean_anomaly": 103.0379,
        "meta_ephemeris_type": 0,
        "meta_classification_type": "U",
        "meta_norad_cat_id": 44819,
        "meta_element_set_no": 999,
        "meta_rev_at_epoch": 32597,
        "meta_bstar": 0.0001102,
        "meta_mean_motion_dot": 7.96e-06,
        "meta_mean_motion_ddot": 0,
        "tle_line1": "1 44819U 19082A   25343.16146789  .00000796  00000+0  11020-3 0  9993",
        "tle_line2": "2 44819  97.8127 349.5364 0001197 257.0700 103.0379 14.80650386325975"
      },
      "geometry": {
        "type": "Point",
        "coordinates": [
          160.31495759692336,
          -50.12851896271451
        ]
      }
    }
  ]
}